STARLINK-36550          
1 67495U 26012C   26030.16668981 -.01778464  88250-3 -47717-2 0  9991
2 67495  42.9962 177.7804 0001669 276.9557  93.7267 15.93628405  2876
STARLINK-36534          
1 67496U 26012D   26030.16668981 -.01763728  87053-3 -46879-2 0  9997
2 67496  42.9965 177.7655 0001754 271.4197 105.0782 15.93803102  2811
STARLINK-36555          
1 67497U 26012E   26030.16668981 -.01772949  87810-3 -47376-2 0  9997
2 67497  42.9964 177.7737 0001770 276.3714  96.9118 15.93704237  2875
STARLINK-36081          
1 67498U 26012F   26030.16668981 -.01763886  87183-3 -46554-2 0  9998
2 67498  42.9966 177.7555 0001811 274.3280 106.1614 15.93935534  2813
STARLINK-36558          
1 67499U 26012G   26030.16668981 -.01747341  85723-3 -45976-2 0  9992
2 67499  42.9965 177.7505 0001748 271.4654 111.0936 15.93991195  2873
STARLINK-36557          
1 67500U 26012H   26030.16668981 -.01750109  86069-3 -45782-2 0  9990
2 67500  42.9965 177.7411 0001796 273.3417 112.5550 15.94100311  2874
STARLINK-36433          
1 67501U 26012J   26030.16668981 -.01750434  86183-3 -45555-2 0  9997
2 67501  42.9964 177.7343 0001728 273.1298 115.6723 15.94197386  2872
STARLINK-36554          
1 67502U 26012K   26028.78437030  .00888078  38384-3  15774-2 0  9995
2 67502  42.9964 186.3737 0012326 300.6114  59.3549 16.00907404  1580
STARLINK-36552          
1 67503U 26012L   26030.16668981 -.01744319  85798-3 -44915-2 0  9994
2 67503  42.9966 177.7188 0001749 276.6942 118.1912 15.94395728  2878
STARLINK-36512          
1 67504U 26012M   26030.16668981 -.01753296  86731-3 -44837-2 0  9990
2 67504  42.9964 177.7096 0001802 276.8884 121.6249 15.94524791  2878
STARLINK-36545          
1 67505U 26012N   26030.16668981 -.01752300  86696-3 -44658-2 0  9997
2 67505  42.9965 177.7040 0001598 277.1891 123.4719 15.94589245  2870
STARLINK-36553          
1 67506U 26012P   26030.16668981 -.01725905  84366-3 -43780-2 0  9996
2 67506  42.9967 177.6972 0001698 273.9807 129.6328 15.94672766  2873
