CCSDS_OMM_VERS = 2.0
CREATION_DATE  = 
ORIGINATOR     = 

OBJECT_NAME    = STARLINK-36550
OBJECT_ID      = 2026-012C
CENTER_NAME    = EARTH
REF_FRAME      = TEME
TIME_SYSTEM    = UTC
MEAN_ELEMENT_THEORY = SGP/SGP4

EPOCH          = 2026-01-30T04:00:01.999584
MEAN_MOTION    = 15.93628405
ECCENTRICITY   = .0001669
INCLINATION    = 42.9962
RA_OF_ASC_NODE = 177.7804
ARG_OF_PERICENTER = 276.9557
MEAN_ANOMALY   = 93.7267

EPHEMERIS_TYPE = 0
CLASSIFICATION_TYPE = U
NORAD_CAT_ID   = 67495
ELEMENT_SET_NO = 999
REV_AT_EPOCH   = 287
BSTAR          = -.47717E-2
MEAN_MOTION_DOT = -.1778464E-1
MEAN_MOTION_DDOT = .8825E-3

CCSDS_OMM_VERS = 2.0
CREATION_DATE  = 
ORIGINATOR     = 

OBJECT_NAME    = STARLINK-36534
OBJECT_ID      = 2026-012D
CENTER_NAME    = EARTH
REF_FRAME      = TEME
TIME_SYSTEM    = UTC
MEAN_ELEMENT_THEORY = SGP/SGP4

EPOCH          = 2026-01-30T04:00:01.999584
MEAN_MOTION    = 15.93803102
ECCENTRICITY   = .0001754
INCLINATION    = 42.9965
RA_OF_ASC_NODE = 177.7655
ARG_OF_PERICENTER = 271.4197
MEAN_ANOMALY   = 105.0782

EPHEMERIS_TYPE = 0
CLASSIFICATION_TYPE = U
NORAD_CAT_ID   = 67496
ELEMENT_SET_NO = 999
REV_AT_EPOCH   = 281
BSTAR          = -.46879E-2
MEAN_MOTION_DOT = -.1763728E-1
MEAN_MOTION_DDOT = .87053E-3

CCSDS_OMM_VERS = 2.0
CREATION_DATE  = 
ORIGINATOR     = 

OBJECT_NAME    = STARLINK-36555
OBJECT_ID      = 2026-012E
CENTER_NAME    = EARTH
REF_FRAME      = TEME
TIME_SYSTEM    = UTC
MEAN_ELEMENT_THEORY = SGP/SGP4

EPOCH          = 2026-01-30T04:00:01.999584
MEAN_MOTION    = 15.93704237
ECCENTRICITY   = .000177
INCLINATION    = 42.9964
RA_OF_ASC_NODE = 177.7737
ARG_OF_PERICENTER = 276.3714
MEAN_ANOMALY   = 96.9118

EPHEMERIS_TYPE = 0
CLASSIFICATION_TYPE = U
NORAD_CAT_ID   = 67497
ELEMENT_SET_NO = 999
REV_AT_EPOCH   = 287
BSTAR          = -.47376E-2
MEAN_MOTION_DOT = -.1772949E-1
MEAN_MOTION_DDOT = .8781E-3

CCSDS_OMM_VERS = 2.0
CREATION_DATE  = 
ORIGINATOR     = 

OBJECT_NAME    = STARLINK-36081
OBJECT_ID      = 2026-012F
CENTER_NAME    = EARTH
REF_FRAME      = TEME
TIME_SYSTEM    = UTC
MEAN_ELEMENT_THEORY = SGP/SGP4

EPOCH          = 2026-01-30T04:00:01.999584
MEAN_MOTION    = 15.93935534
ECCENTRICITY   = .0001811
INCLINATION    = 42.9966
RA_OF_ASC_NODE = 177.7555
ARG_OF_PERICENTER = 274.3280
MEAN_ANOMALY   = 106.1614

EPHEMERIS_TYPE = 0
CLASSIFICATION_TYPE = U
NORAD_CAT_ID   = 67498
ELEMENT_SET_NO = 999
REV_AT_EPOCH   = 281
BSTAR          = -.46554E-2
MEAN_MOTION_DOT = -.1763886E-1
MEAN_MOTION_DDOT = .87183E-3

CCSDS_OMM_VERS = 2.0
CREATION_DATE  = 
ORIGINATOR     = 

OBJECT_NAME    = STARLINK-36558
OBJECT_ID      = 2026-012G
CENTER_NAME    = EARTH
REF_FRAME      = TEME
TIME_SYSTEM    = UTC
MEAN_ELEMENT_THEORY = SGP/SGP4

EPOCH          = 2026-01-30T04:00:01.999584
MEAN_MOTION    = 15.93991195
ECCENTRICITY   = .0001748
INCLINATION    = 42.9965
RA_OF_ASC_NODE = 177.7505
ARG_OF_PERICENTER = 271.4654
MEAN_ANOMALY   = 111.0936

EPHEMERIS_TYPE = 0
CLASSIFICATION_TYPE = U
NORAD_CAT_ID   = 67499
ELEMENT_SET_NO = 999
REV_AT_EPOCH   = 287
BSTAR          = -.45976E-2
MEAN_MOTION_DOT = -.1747341E-1
MEAN_MOTION_DDOT = .85723E-3

CCSDS_OMM_VERS = 2.0
CREATION_DATE  = 
ORIGINATOR     = 

OBJECT_NAME    = STARLINK-36557
OBJECT_ID      = 2026-012H
CENTER_NAME    = EARTH
REF_FRAME      = TEME
TIME_SYSTEM    = UTC
MEAN_ELEMENT_THEORY = SGP/SGP4

EPOCH          = 2026-01-30T04:00:01.999584
MEAN_MOTION    = 15.94100311
ECCENTRICITY   = .0001796
INCLINATION    = 42.9965
RA_OF_ASC_NODE = 177.7411
ARG_OF_PERICENTER = 273.3417
MEAN_ANOMALY   = 112.5550

EPHEMERIS_TYPE = 0
CLASSIFICATION_TYPE = U
NORAD_CAT_ID   = 67500
ELEMENT_SET_NO = 999
REV_AT_EPOCH   = 287
BSTAR          = -.45782E-2
MEAN_MOTION_DOT = -.1750109E-1
MEAN_MOTION_DDOT = .86069E-3

CCSDS_OMM_VERS = 2.0
CREATION_DATE  = 
ORIGINATOR     = 

OBJECT_NAME    = STARLINK-36433
OBJECT_ID      = 2026-012J
CENTER_NAME    = EARTH
REF_FRAME      = TEME
TIME_SYSTEM    = UTC
MEAN_ELEMENT_THEORY = SGP/SGP4

EPOCH          = 2026-01-30T04:00:01.999584
MEAN_MOTION    = 15.94197386
ECCENTRICITY   = .0001728
INCLINATION    = 42.9964
RA_OF_ASC_NODE = 177.7343
ARG_OF_PERICENTER = 273.1298
MEAN_ANOMALY   = 115.6723

EPHEMERIS_TYPE = 0
CLASSIFICATION_TYPE = U
NORAD_CAT_ID   = 67501
ELEMENT_SET_NO = 999
REV_AT_EPOCH   = 287
BSTAR          = -.45555E-2
MEAN_MOTION_DOT = -.1750434E-1
MEAN_MOTION_DDOT = .86183E-3

CCSDS_OMM_VERS = 2.0
CREATION_DATE  = 
ORIGINATOR     = 

OBJECT_NAME    = STARLINK-36554
OBJECT_ID      = 2026-012K
CENTER_NAME    = EARTH
REF_FRAME      = TEME
TIME_SYSTEM    = UTC
MEAN_ELEMENT_THEORY = SGP/SGP4

EPOCH          = 2026-01-28T18:49:29.593920
MEAN_MOTION    = 16.00907404
ECCENTRICITY   = .0012326
INCLINATION    = 42.9964
RA_OF_ASC_NODE = 186.3737
ARG_OF_PERICENTER = 300.6114
MEAN_ANOMALY   = 59.3549

EPHEMERIS_TYPE = 0
CLASSIFICATION_TYPE = U
NORAD_CAT_ID   = 67502
ELEMENT_SET_NO = 999
REV_AT_EPOCH   = 158
BSTAR          = .15774E-2
MEAN_MOTION_DOT = .888078E-2
MEAN_MOTION_DDOT = .38384E-3

CCSDS_OMM_VERS = 2.0
CREATION_DATE  = 
ORIGINATOR     = 

OBJECT_NAME    = STARLINK-36552
OBJECT_ID      = 2026-012L
CENTER_NAME    = EARTH
REF_FRAME      = TEME
TIME_SYSTEM    = UTC
MEAN_ELEMENT_THEORY = SGP/SGP4

EPOCH          = 2026-01-30T04:00:01.999584
MEAN_MOTION    = 15.94395728
ECCENTRICITY   = .0001749
INCLINATION    = 42.9966
RA_OF_ASC_NODE = 177.7188
ARG_OF_PERICENTER = 276.6942
MEAN_ANOMALY   = 118.1912

EPHEMERIS_TYPE = 0
CLASSIFICATION_TYPE = U
NORAD_CAT_ID   = 67503
ELEMENT_SET_NO = 999
REV_AT_EPOCH   = 287
BSTAR          = -.44915E-2
MEAN_MOTION_DOT = -.1744319E-1
MEAN_MOTION_DDOT = .85798E-3

CCSDS_OMM_VERS = 2.0
CREATION_DATE  = 
ORIGINATOR     = 

OBJECT_NAME    = STARLINK-36512
OBJECT_ID      = 2026-012M
CENTER_NAME    = EARTH
REF_FRAME      = TEME
TIME_SYSTEM    = UTC
MEAN_ELEMENT_THEORY = SGP/SGP4

EPOCH          = 2026-01-30T04:00:01.999584
MEAN_MOTION    = 15.94524791
ECCENTRICITY   = .0001802
INCLINATION    = 42.9964
RA_OF_ASC_NODE = 177.7096
ARG_OF_PERICENTER = 276.8884
MEAN_ANOMALY   = 121.6249

EPHEMERIS_TYPE = 0
CLASSIFICATION_TYPE = U
NORAD_CAT_ID   = 67504
ELEMENT_SET_NO = 999
REV_AT_EPOCH   = 287
BSTAR          = -.44837E-2
MEAN_MOTION_DOT = -.1753296E-1
MEAN_MOTION_DDOT = .86731E-3

CCSDS_OMM_VERS = 2.0
CREATION_DATE  = 
ORIGINATOR     = 

OBJECT_NAME    = STARLINK-36545
OBJECT_ID      = 2026-012N
CENTER_NAME    = EARTH
REF_FRAME      = TEME
TIME_SYSTEM    = UTC
MEAN_ELEMENT_THEORY = SGP/SGP4

EPOCH          = 2026-01-30T04:00:01.999584
MEAN_MOTION    = 15.94589245
ECCENTRICITY   = .0001598
INCLINATION    = 42.9965
RA_OF_ASC_NODE = 177.7040
ARG_OF_PERICENTER = 277.1891
MEAN_ANOMALY   = 123.4719

EPHEMERIS_TYPE = 0
CLASSIFICATION_TYPE = U
NORAD_CAT_ID   = 67505
ELEMENT_SET_NO = 999
REV_AT_EPOCH   = 287
BSTAR          = -.44658E-2
MEAN_MOTION_DOT = -.17523E-1
MEAN_MOTION_DDOT = .86696E-3

CCSDS_OMM_VERS = 2.0
CREATION_DATE  = 
ORIGINATOR     = 

OBJECT_NAME    = STARLINK-36553
OBJECT_ID      = 2026-012P
CENTER_NAME    = EARTH
REF_FRAME      = TEME
TIME_SYSTEM    = UTC
MEAN_ELEMENT_THEORY = SGP/SGP4

EPOCH          = 2026-01-30T04:00:01.999584
MEAN_MOTION    = 15.94672766
ECCENTRICITY   = .0001698
INCLINATION    = 42.9967
RA_OF_ASC_NODE = 177.6972
ARG_OF_PERICENTER = 273.9807
MEAN_ANOMALY   = 129.6328

EPHEMERIS_TYPE = 0
CLASSIFICATION_TYPE = U
NORAD_CAT_ID   = 67506
ELEMENT_SET_NO = 999
REV_AT_EPOCH   = 287
BSTAR          = -.4378E-2
MEAN_MOTION_DOT = -.1725905E-1
MEAN_MOTION_DDOT = .84366E-3

